CCSDS_OMM_VERS = 2.0
CREATION_DATE  = 
ORIGINATOR     = 

OBJECT_NAME    = SL-14 R/B
OBJECT_ID      = 1986-046B
CENTER_NAME    = EARTH
REF_FRAME      = TEME
TIME_SYSTEM    = UTC
MEAN_ELEMENT_THEORY = SGP/SGP4

EPOCH          = 2026-01-12T18:24:26.885376
MEAN_MOTION    = 14.85526269
ECCENTRICITY   = .00243047
INCLINATION    = 82.4834
RA_OF_ASC_NODE = 133.0136
ARG_OF_PERICENTER = 55.1042
MEAN_ANOMALY   = 305.2454

EPHEMERIS_TYPE = 0
CLASSIFICATION_TYPE = U
NORAD_CAT_ID   = 16792
ELEMENT_SET_NO = 999
REV_AT_EPOCH   = 11810
BSTAR          = .51957103E-4
MEAN_MOTION_DOT = .476E-5
MEAN_MOTION_DDOT = 0

CCSDS_OMM_VERS = 2.0
CREATION_DATE  = 
ORIGINATOR     = 

OBJECT_NAME    = SL-14 R/B
OBJECT_ID      = 1986-055B
CENTER_NAME    = EARTH
REF_FRAME      = TEME
TIME_SYSTEM    = UTC
MEAN_ELEMENT_THEORY = SGP/SGP4

EPOCH          = 2026-01-12T23:27:41.101056
MEAN_MOTION    = 14.85569652
ECCENTRICITY   = .00195833
INCLINATION    = 82.5204
RA_OF_ASC_NODE = 179.0188
ARG_OF_PERICENTER = 152.6435
MEAN_ANOMALY   = 328.5147

EPHEMERIS_TYPE = 0
CLASSIFICATION_TYPE = U
NORAD_CAT_ID   = 16882
ELEMENT_SET_NO = 999
REV_AT_EPOCH   = 11109
BSTAR          = .53048719E-4
MEAN_MOTION_DOT = .485E-5
MEAN_MOTION_DDOT = 0

CCSDS_OMM_VERS = 2.0
CREATION_DATE  = 
ORIGINATOR     = 

OBJECT_NAME    = AJISAI (EGS)
OBJECT_ID      = 1986-061A
CENTER_NAME    = EARTH
REF_FRAME      = TEME
TIME_SYSTEM    = UTC
MEAN_ELEMENT_THEORY = SGP/SGP4

EPOCH          = 2026-01-12T23:43:47.567136
MEAN_MOTION    = 12.44514868
ECCENTRICITY   = .00113081
INCLINATION    = 50.0085
RA_OF_ASC_NODE = 264.6303
ARG_OF_PERICENTER = 144.3664
MEAN_ANOMALY   = 313.0985

EPHEMERIS_TYPE = 0
CLASSIFICATION_TYPE = U
NORAD_CAT_ID   = 16908
ELEMENT_SET_NO = 999
REV_AT_EPOCH   = 46106
BSTAR          = .12389631E-3
MEAN_MOTION_DOT = -.8E-6
MEAN_MOTION_DDOT = 0

CCSDS_OMM_VERS = 2.0
CREATION_DATE  = 
ORIGINATOR     = 

OBJECT_NAME    = COSMOS 1812
OBJECT_ID      = 1987-003A
CENTER_NAME    = EARTH
REF_FRAME      = TEME
TIME_SYSTEM    = UTC
MEAN_ELEMENT_THEORY = SGP/SGP4

EPOCH          = 2026-01-12T17:11:40.036704
MEAN_MOTION    = 15.83568388
ECCENTRICITY   = .0003158
INCLINATION    = 82.4838
RA_OF_ASC_NODE = 258.2996
ARG_OF_PERICENTER = 50.0967
MEAN_ANOMALY   = 310.0579

EPHEMERIS_TYPE = 0
CLASSIFICATION_TYPE = U
NORAD_CAT_ID   = 17295
ELEMENT_SET_NO = 999
REV_AT_EPOCH   = 13554
BSTAR          = .59137697E-3
MEAN_MOTION_DOT = .130608E-2
MEAN_MOTION_DDOT = 0

CCSDS_OMM_VERS = 2.0
CREATION_DATE  = 
ORIGINATOR     = 

OBJECT_NAME    = SL-14 R/B
OBJECT_ID      = 1987-024B
CENTER_NAME    = EARTH
REF_FRAME      = TEME
TIME_SYSTEM    = UTC
MEAN_ELEMENT_THEORY = SGP/SGP4

EPOCH          = 2026-01-12T18:04:51.372768
MEAN_MOTION    = 14.86066104
ECCENTRICITY   = .00197416
INCLINATION    = 82.5297
RA_OF_ASC_NODE = 145.3214
ARG_OF_PERICENTER = 86.5004
MEAN_ANOMALY   = 273.8470

EPHEMERIS_TYPE = 0
CLASSIFICATION_TYPE = U
NORAD_CAT_ID   = 17567
ELEMENT_SET_NO = 999
REV_AT_EPOCH   = 7982
BSTAR          = .56015E-4
MEAN_MOTION_DOT = .516E-5
MEAN_MOTION_DDOT = 0

CCSDS_OMM_VERS = 2.0
CREATION_DATE  = 
ORIGINATOR     = 

OBJECT_NAME    = COSMOS 1833
OBJECT_ID      = 1987-027A
CENTER_NAME    = EARTH
REF_FRAME      = TEME
TIME_SYSTEM    = UTC
MEAN_ELEMENT_THEORY = SGP/SGP4

EPOCH          = 2026-01-12T22:28:31.249920
MEAN_MOTION    = 14.13042456
ECCENTRICITY   = .00240189
INCLINATION    = 70.9190
RA_OF_ASC_NODE = 83.2010
ARG_OF_PERICENTER = 288.6544
MEAN_ANOMALY   = 71.1969

EPHEMERIS_TYPE = 0
CLASSIFICATION_TYPE = U
NORAD_CAT_ID   = 17589
ELEMENT_SET_NO = 999
REV_AT_EPOCH   = 244
BSTAR          = .18835331E-3
MEAN_MOTION_DOT = .304E-5
MEAN_MOTION_DDOT = 0

CCSDS_OMM_VERS = 2.0
CREATION_DATE  = 
ORIGINATOR     = 

OBJECT_NAME    = SL-16 R/B
OBJECT_ID      = 1987-027B
CENTER_NAME    = EARTH
REF_FRAME      = TEME
TIME_SYSTEM    = UTC
MEAN_ELEMENT_THEORY = SGP/SGP4

EPOCH          = 2026-01-12T18:56:32.244576
MEAN_MOTION    = 14.17160193
ECCENTRICITY   = .00065552
INCLINATION    = 71.0032
RA_OF_ASC_NODE = 34.2895
ARG_OF_PERICENTER = 226.4680
MEAN_ANOMALY   = 133.5900

EPHEMERIS_TYPE = 0
CLASSIFICATION_TYPE = U
NORAD_CAT_ID   = 17590
ELEMENT_SET_NO = 999
REV_AT_EPOCH   = 742
BSTAR          = .68755662E-4
MEAN_MOTION_DOT = .91E-6
MEAN_MOTION_DDOT = 0

CCSDS_OMM_VERS = 2.0
CREATION_DATE  = 
ORIGINATOR     = 

OBJECT_NAME    = SL-14 R/B
OBJECT_ID      = 1987-038B
CENTER_NAME    = EARTH
REF_FRAME      = TEME
TIME_SYSTEM    = UTC
MEAN_ELEMENT_THEORY = SGP/SGP4

EPOCH          = 2026-01-12T22:07:08.219424
MEAN_MOTION    = 14.85298991
ECCENTRICITY   = .00191083
INCLINATION    = 82.5021
RA_OF_ASC_NODE = 349.3278
ARG_OF_PERICENTER = 353.9543
MEAN_ANOMALY   = 6.1439

EPHEMERIS_TYPE = 0
CLASSIFICATION_TYPE = U
NORAD_CAT_ID   = 17912
ELEMENT_SET_NO = 999
REV_AT_EPOCH   = 7095
BSTAR          = .51468163E-4
MEAN_MOTION_DOT = .467E-5
MEAN_MOTION_DDOT = 0

CCSDS_OMM_VERS = 2.0
CREATION_DATE  = 
ORIGINATOR     = 

OBJECT_NAME    = COSMOS 1844
OBJECT_ID      = 1987-041A
CENTER_NAME    = EARTH
REF_FRAME      = TEME
TIME_SYSTEM    = UTC
MEAN_ELEMENT_THEORY = SGP/SGP4

EPOCH          = 2026-01-12T17:56:30.584544
MEAN_MOTION    = 14.14538722
ECCENTRICITY   = .00283355
INCLINATION    = 70.8995
RA_OF_ASC_NODE = 152.1713
ARG_OF_PERICENTER = 107.7695
MEAN_ANOMALY   = 252.6522

EPHEMERIS_TYPE = 0
CLASSIFICATION_TYPE = U
NORAD_CAT_ID   = 17973
ELEMENT_SET_NO = 999
REV_AT_EPOCH   = 99567
BSTAR          = -.62210034E-4
MEAN_MOTION_DOT = -.168E-5
MEAN_MOTION_DDOT = 0

CCSDS_OMM_VERS = 2.0
CREATION_DATE  = 
ORIGINATOR     = 

OBJECT_NAME    = SL-14 R/B
OBJECT_ID      = 1987-055B
CENTER_NAME    = EARTH
REF_FRAME      = TEME
TIME_SYSTEM    = UTC
MEAN_ELEMENT_THEORY = SGP/SGP4

EPOCH          = 2026-01-12T13:42:42.564672
MEAN_MOTION    = 14.85557169
ECCENTRICITY   = .0020234
INCLINATION    = 82.4978
RA_OF_ASC_NODE = 41.9262
ARG_OF_PERICENTER = 194.9838
MEAN_ANOMALY   = 165.0782

EPHEMERIS_TYPE = 0
CLASSIFICATION_TYPE = U
NORAD_CAT_ID   = 18153
ELEMENT_SET_NO = 999
REV_AT_EPOCH   = 6160
BSTAR          = .45661461E-4
MEAN_MOTION_DOT = .42E-5
MEAN_MOTION_DDOT = 0

CCSDS_OMM_VERS = 2.0
CREATION_DATE  = 
ORIGINATOR     = 

OBJECT_NAME    = COSMOS 1867
OBJECT_ID      = 1987-060A
CENTER_NAME    = EARTH
REF_FRAME      = TEME
TIME_SYSTEM    = UTC
MEAN_ELEMENT_THEORY = SGP/SGP4

EPOCH          = 2026-01-12T23:18:14.854464
MEAN_MOTION    = 14.31492469
ECCENTRICITY   = .00138267
INCLINATION    = 65.0111
RA_OF_ASC_NODE = 102.7435
ARG_OF_PERICENTER = 274.1790
MEAN_ANOMALY   = 85.7714

EPHEMERIS_TYPE = 0
CLASSIFICATION_TYPE = U
NORAD_CAT_ID   = 18187
ELEMENT_SET_NO = 999
REV_AT_EPOCH   = 1196
BSTAR          = .16724596E-4
MEAN_MOTION_DOT = -.56E-6
MEAN_MOTION_DDOT = 0

CCSDS_OMM_VERS = 2.0
CREATION_DATE  = 
ORIGINATOR     = 

OBJECT_NAME    = SL-14 R/B
OBJECT_ID      = 1988-001B
CENTER_NAME    = EARTH
REF_FRAME      = TEME
TIME_SYSTEM    = UTC
MEAN_ELEMENT_THEORY = SGP/SGP4

EPOCH          = 2026-01-12T21:35:37.959360
MEAN_MOTION    = 14.85460007
ECCENTRICITY   = .00194906
INCLINATION    = 82.5116
RA_OF_ASC_NODE = 247.8406
ARG_OF_PERICENTER = 64.8446
MEAN_ANOMALY   = 295.4788

EPHEMERIS_TYPE = 0
CLASSIFICATION_TYPE = U
NORAD_CAT_ID   = 18749
ELEMENT_SET_NO = 999
REV_AT_EPOCH   = 3374
BSTAR          = .37789656E-4
MEAN_MOTION_DOT = .351E-5
MEAN_MOTION_DDOT = 0

