SL-14 R/B               
1 16792U 86046B   26012.76697784  .00000476  00000+0  51957-4 0  9991
2 16792  82.4834 133.0136 0024304  55.1042 305.2454 14.85526269118105
SL-14 R/B               
1 16882U 86055B   26012.97755904  .00000485  00000+0  53049-4 0  9997
2 16882  82.5204 179.0188 0019583 152.6435 328.5147 14.85569652111097
AJISAI (EGS)            
1 16908U 86061A   26012.98874499 -.00000080  00000+0  12390-3 0  9990
2 16908  50.0085 264.6303 0011308 144.3664 313.0985 12.44514868461068
COSMOS 1812             
1 17295U 87003A   26012.71643561  .00130608  00000+0  59138-3 0  9992
2 17295  82.4838 258.2996 0003158  50.0967 310.0579 15.83568388135542
SL-14 R/B               
1 17567U 87024B   26012.75337237  .00000516  00000+0  56015-4 0  9997
2 17567  82.5297 145.3214 0019741  86.5004 273.8470 14.86066104 79829
COSMOS 1833             
1 17589U 87027A   26012.93647280  .00000304  00000+0  18835-3 0  9998
2 17589  70.9190  83.2010 0024018 288.6544  71.1969 14.13042456  2447
SL-16 R/B               
1 17590U 87027B   26012.78926209  .00000091  00000+0  68756-4 0  9995
2 17590  71.0032  34.2895 0006555 226.4680 133.5900 14.17160193  7424
SL-14 R/B               
1 17912U 87038B   26012.92162291  .00000467  00000+0  51468-4 0  9993
2 17912  82.5021 349.3278 0019108 353.9543   6.1439 14.85298991 70957
COSMOS 1844             
1 17973U 87041A   26012.74757621 -.00000168  00000+0 -62210-4 0  9998
2 17973  70.8995 152.1713 0028335 107.7695 252.6522 14.14538722995670
SL-14 R/B               
1 18153U 87055B   26012.57132598  .00000420  00000+0  45661-4 0  9995
2 18153  82.4978  41.9262 0020234 194.9838 165.0782 14.85557169 61608
COSMOS 1867             
1 18187U 87060A   26012.97100526 -.00000056  00000+0  16725-4 0  9993
2 18187  65.0111 102.7435 0013826 274.1790  85.7714 14.31492469 11965
SL-14 R/B               
1 18749U 88001B   26012.89974490  .00000351  00000+0  37790-4 0  9995
2 18749  82.5116 247.8406 0019490  64.8446 295.4788 14.85460007 33745
